#dP2023  5 23  0  0  0.00000000      96 __u+U IGS14 FIT  IAC
## 2263 172800.00000000   900.00000000 60087 0.0000000000000
+  118   C07C08C09C10C11C12C13C14C16C19C20C21C22C23C24C25C26
+        C27C28C29C30C32C33C34C35C36C37C38C39C40C41C42C43C44
+        C45C46E02E03E04E05E07E08E09E10E11E12E13E14E15E18E19
+        E21E24E25E26E27E30E31E33E34E36G01G02G03G04G05G06G07
+        G08G09G10G11G12G13G14G15G16G17G18G19G20G21G22G23G24
+        G25G26G27G28G29G30G31G32J02J03J04R01R02R03R04R05R07
+        R08R09R11R12R13R14R15R16R17R18R19R20R21R22R24R25  0
++         7  8  7  7  7  6  8  7  7  6  6  6  5  6  6  6  6
++         6  6  5  6  6  6  6  6  6  6  6  6  6  6  6  6  6
++         6  6  4  4  4  4  4  5  4  4  4  4  5  4  4  4  4
++         4  4  4  4  4  4  4  4  4  4  3  3  5  4  3  4  3
++         3  3  5  4  4  3  3  4  4  4  3  4  4  3  4  3  3
++         3  4  3  4  3  3  4  3  9  9  9  8  7  7  6  6  7
++         7  7  6  7  8  7  7  7  7  7  8  8  7  7  7  8  0
%c M  cc GPS ccc cccc cccc cccc cccc ccccc ccccc ccccc ccccc
%c cc cc ccc ccc cccc cccc cccc cccc ccccc ccccc ccccc ccccc
%f  1.2500000  1.025000000  0.00000000000  0.000000000000000
%f  0.0000000  0.000000000  0.00000000000  0.000000000000000
%i    0    0    0    0      0      0      0      0         0
%i    0    0    0    0      0      0      0      0         0
/* INFORMATION & ANALYSIS CENTER (IAC)            FINAL DATA
/* S/V CLOCKS ARE ALIGNED TO GNSS TIME                      
/* G:C1WC2W R:C1PC2P E:C1XC5X C:C2IC6I J:C1CC2S             
/* PCV:IGS20_2247 OL/AL:FES2004  NONE     YN ORB:CoN CLK:CoN
*  2023 05 23 22 45  0.00000000
PC07  -3347.653960  35627.706393  22492.968381    -63.925366
PC08  -9021.547611  19230.011531 -36447.514294    478.330140
PC09  -9068.478327  33979.601503  23288.567212    618.956525
PC10   4096.632229  38881.302051  16752.581061    -66.334101
PC11  16307.713588   1491.942449 -22533.262301    635.467953
PC12   4418.067249  19089.573146 -19842.278030    660.536313
PC13   -614.798391  21935.508090 -35848.744025    281.141726
PC14  19994.548122  11181.319990  16000.114977    302.932651
PC16 -19675.469992  35434.213794  11305.927416     68.336114
PC19 -17947.445950  -1319.733601 -21292.190891   -913.659888
PC20 -19042.472114 -17921.980153  -9674.260323    549.359547
PC21   8675.281723  25052.007091  -8744.982599   -916.978215
PC22  -6456.478063  16930.604605 -21230.461774   -474.278332
PC23  17982.503171 -12895.079016 -16995.605360   -936.668791
PC24  21062.719416  10204.092310  15175.072394    -19.864923
PC25  27617.667822  -3248.872004  -2223.882175    132.612066
PC26   3780.238410  16001.539996  22532.641258   -124.554468
PC27   1885.856117 -23997.826736  14103.177945    144.601372
PC28  14257.432313 -23938.057522  -1555.507049    107.102867
PC29 -18889.181163   9571.432713  18163.765929    124.395142
PC30 -12093.075198 -11102.198722  22556.467662     -0.506812
PC32  -8759.521072 -24963.476423   8865.636470   -558.094714
PC33  18048.474105   1326.286720  21256.747739   -885.202401
PC34  12950.183633   9762.846075 -22724.328825    177.297371
PC35 -13743.300327  24162.157901   2209.461458    621.748226
PC36 -27786.445846   2124.915417   1533.782339   -424.286009
PC37  -2116.050039 -16190.720964 -22616.183804   -784.055429
PC38 -17872.853017  19312.294957 -32953.971436     80.350048
PC39 -21411.962163  35770.806116   5558.112663     -3.047997
PC40  -6414.795878  32704.846853  25968.680214    -24.083869
PC41   7020.878387 -16401.009090  21509.925721   -937.458331
PC42  18793.399799  18847.709848   8486.921170   -679.145053
PC43  18949.609366  -8634.453849 -18601.799268     22.817039
PC44  -1007.256637  24143.953884 -13947.594518    115.898237
PC45 -17572.507278  12984.143316  17373.429532   -101.354761
PC46 -22225.615027  -9319.195413 -14097.266566    -56.236971
PE02  25743.057506   3713.459947 -14123.700319     39.877260
PE03  16850.047947  -3994.486224  24008.414686    -19.360295
PE04 -10379.378258  23329.179051 -14964.590125   -128.914496
PE05  13542.782795  18107.052681  19114.796336    -64.674915
PE07  -2160.585081 -29377.493428  -2826.058048    -47.312656
PE08  10431.372133 -23098.971868  15284.846620    -87.741080
PE09   2095.855443  29413.081404   2696.335726    -25.114177
PE10 -13014.745564  20413.497726 -17044.211248   -535.923856
PE11  -2174.279294  18522.171697 -22997.111403   2013.844509
PE12 -20874.467826  18956.160778  -8978.713613   -550.958990
PE13   3043.644539 -18731.041478  22716.693477    -19.210091
PE14  19468.812753   4599.106046 -23639.325301    233.668740
PE15  21111.369970 -18867.159690   8649.995567    -24.026613
PE18 -15784.775293  12462.903686  17099.902910     98.755233
PE19 -16869.396104    844.307045 -24294.960655  -2464.643856
PE21 -24391.045828 -16476.920948  -3121.002796   -530.838834
PE24   7992.963275  20428.388380  19850.562193   -115.324308
PE25  24230.672091  16646.884625   3452.648453   -605.563986
PE26 -17283.731892  -7204.480292  22920.920732    113.017548
PE27  -8836.335677 -20470.233248 -19471.477898    -56.888421
PE30  12349.664237 -12012.661742 -24079.191764   -197.218872
PE31 -11764.046459  12367.793423  24188.200783   -524.390399
PE33 -26564.586922   7861.310666  10405.803620   -444.068251
PE34  26577.459517  -8011.840083 -10284.955099    -47.006732
PE36  16589.279572   7625.302862 -23305.281223    -60.572055
PG01  -5716.596674  17294.849971 -19532.366112    183.171422
PG02 -22019.992320  14671.356082   -703.944879   -593.135280
PG03   5494.195632  18249.246270 -18683.237095   -294.202798
PG04     -7.878655  26370.790826   2613.183944     49.220254
PG05  11387.426126 -10546.565682  21392.511099   -128.343760
PG06  23517.032175  -3389.368461 -11912.812323    587.609113
PG07  10601.782446  11958.018059  21721.211161    170.811503
PG08  -6841.980130  23602.520465   9482.365849   -123.887099
PG09   8027.807632  22357.868551  11763.952591   -152.192601
PG10 -23873.635628 -10743.362076  -5200.670184    -38.177679
PG11  23217.278084 -12647.073534   2332.315054   -207.932843
PG12  -1233.497772 -17897.114327 -19891.590182   -379.710857
PG13  13026.850505 -18031.187871  14178.171398    524.142425
PG14  23036.142195  13115.601175  -2669.452651     66.926245
PG15   3669.048531 -24624.618199   8410.704358     42.268858
PG16 -15420.572933   6152.467645  20525.281855   -498.355661
PG17  13257.445235   9051.517496 -20713.722026    715.896724
PG18 -13172.357608  -9391.697775  21093.242978   -278.645368
PG19  15146.856336    -29.256248 -22024.862668    320.920299
PG20  19006.593774  -5792.656078  17566.195125    431.944257
PG21 -13314.105358  18657.543860 -12085.852748    153.638014
PG22 -15171.370280   4268.073731 -20903.160298    486.297817
PG23 -19741.018172 -16669.574867   6495.919671     26.707837
PG24   8540.681337 -19572.508803 -15882.237945   -199.544591
PG25 -13410.020874 -19121.408471 -13208.935398    444.917933
PG26 -23258.399163  -1599.981200  12916.151951    240.379011
PG27 -12626.778086  14786.808009  17649.541486     31.212439
PG28 -22799.861429   2321.369739 -13443.397776     79.921508
PG29  -3927.644082 -24320.277743   9755.359305   -600.481327
PG30  19896.388144   4079.935776  17361.612541   -515.459900
PG31 -24739.646411   9842.051205  -3278.524202   -216.712595
PG32 -14696.944074  -5886.525746 -21173.598208   -483.685202
PJ02 -26753.132149  21763.932764  29343.375326     -0.106134
PJ03 -34145.500636  24725.816928   5528.498654      4.793583
PJ04 -21676.595331  23730.114113 -22166.825881     94.738392
PR01  11865.413411  22103.145219   4677.651341     58.059627
PR02  13393.824215   8869.360439  19841.350438    -22.795697
PR03   7695.471868  -9392.799890  22490.269709     78.363706
PR04  -2133.140320 -21978.681832  12810.432465    188.354819
PR05 -10713.792621 -22834.354466  -3860.251773    113.019591
PR07  -7282.742785  10092.453725 -22214.167748     56.505202
PR08   2382.993308  22067.942333 -12483.114978    -70.921532
PR09 -25198.429470  -3521.534398  -1035.018024    121.823287
PR11  -4464.001224  10354.962747  22890.018102    -62.557541
PR12  15692.612573  10504.689004  17167.440629     27.512959
PR13  24899.154611   4660.839219   2988.296231    -35.365907
PR14  19891.501750  -4779.439708 -15237.423880     24.687179
PR15   3237.414821 -10664.025712 -22924.248097     89.169135
PR16 -15496.776286 -10323.927124 -17404.684857     14.865487
PR17  17684.026153 -16983.276174  -6968.102408    632.606513
PR18  11308.192940 -20732.126705   9717.611087     83.018154
PR19    524.548115 -14732.852309  20809.003098   -233.683433
PR20 -14315.570980   2252.699363  20980.297986    -93.373471
PR21 -17566.235878  17677.623203   5490.602292     -9.756647
PR22 -11258.011843  20335.896039 -10467.649803     80.875096
PR24  14872.416330  -3072.297736 -20481.036464    172.922800
PR25 -18552.177403  16034.867935   7061.167631     61.864701
EOF
